{
  "type": "FeatureCollection",
  "name": "Flood Inundation Vector (scn-001)",
  "crs": {
    "type": "name",
    "properties": {
      "name": "urn:ogc:def:crs:OGC:1.3:CRS84"
    }
  },
  "features": [
    {
      "type": "Feature",
      "properties": {
        "id": "FLD-VEC-scn-001",
        "layer": "FLOOD_INUNDATION",
        "spectral_index": "MNDWI",
        "threshold": 0.05,
        "inundation_area_km2": 18.64,
        "confidence": 0.948,
        "quality": "SCL Cloud Mask Validated",
        "color": "#0284C7"
      },
      "geometry": {
        "type": "MultiPolygon",
        "coordinates": [
          [
            [
              [
                89.48,
                21.82
              ],
              [
                89.58,
                21.84
              ],
              [
                89.65,
                21.8
              ],
              [
                89.62,
                21.72
              ],
              [
                89.5,
                21.73
              ],
              [
                89.44,
                21.78
              ],
              [
                89.48,
                21.82
              ]
            ]
          ],
          [
            [
              [
                89.38,
                21.88
              ],
              [
                89.45,
                21.89
              ],
              [
                89.46,
                21.85
              ],
              [
                89.4,
                21.84
              ],
              [
                89.38,
                21.88
              ]
            ]
          ]
        ]
      }
    }
  ]
}